SatCatId,ObjectName,LaunchYear,OrbitalPeriod,LaunchMass,StatusCode,Inclination,Status,UcsData,OrbitClassEstimated,LaunchSiteCountry,Owner,UseType,Purpose,LaunchVehicleClass,TLE1,TLE2,MeanMotion,Eccentricity,OrbitClass
48648,STARLINK-2521,2021,95.59,260.0,+,53.05,Active,1,LEO,USA,USA,Commercial,Communications,Falcon,1 48648U 21044L   24131.59945660  .00029297  00000+0  19773-2 0  9993,2 48648  53.0548 240.9528 0001484  99.3702 260.7455 15.06404330163010,15.0640433,0.0001484,LEO
48649,STARLINK-2673,2021,95.59,260.0,+,53.05,Active,1,LEO,USA,USA,Commercial,Communications,Falcon,1 48649U 21044M   24131.58100154  .00024834  00000+0  16819-2 0  9994,2 48649  53.0558 240.8728 0001786 110.7550 249.3630 15.06362246163003,15.06362246,0.0001786,LEO
48650,STARLINK-2672,2021,95.59,260.0,+,53.05,Active,1,LEO,USA,USA,Commercial,Communications,Falcon,1 48650U 21044N   24131.57731827  .00026148  00000+0  17694-2 0  9994,2 48650  53.0540 240.8886 0001209 102.6584 257.4541 15.06366134163009,15.06366134,0.0001209,LEO
48651,STARLINK-2731,2021,95.59,260.0,+,53.05,Active,1,LEO,USA,USA,Commercial,Communications,Falcon,1 48651U 21044P   24131.57364064  .00013357  00000+0  91370-3 0  9992,2 48651  53.0536 240.9050 0001873  99.5994 260.5207 15.06406519163001,15.06406519,0.0001873,LEO
48652,STARLINK-2727,2021,95.59,260.0,+,53.05,Active,1,LEO,USA,USA,Commercial,Communications,Falcon,1 48652U 21044Q   24131.56994101  .00025309  00000+0  17119-2 0  9991,2 48652  53.0556 240.9241 0001519  95.4093 264.7069 15.06399762163001,15.06399762,0.0001519,LEO
48653,STARLINK-2720,2021,95.59,260.0,+,53.05,Active,1,LEO,USA,USA,Commercial,Communications,Falcon,1 48653U 21044R   24131.56625174  .00030159  00000+0  20346-2 0  9998,2 48653  53.0541 240.9395 0001560  96.2136 263.9031 15.06406106163000,15.06406106,0.000156,LEO
48654,STARLINK-2651,2021,95.59,260.0,+,53.05,Active,1,LEO,USA,USA,Commercial,Communications,Falcon,1 48654U 21044S   24131.56259239  .00027609  00000+0  18652-2 0  9997,2 48654  53.0542 240.9573 0001431  92.1293 267.9860 15.06398512163900,15.06398512,0.0001431,LEO
48655,STARLINK-2657,2021,95.59,260.0,+,53.05,Active,1,LEO,USA,USA,Commercial,Communications,Falcon,1 48655U 21044T   24131.55889952  .00026360  00000+0  17821-2 0  9998,2 48655  53.0530 240.9694 0001503 137.1921 222.9185 15.06396410163849,15.0639641,0.0001503,LEO
48656,STARLINK-2701,2021,95.59,260.0,+,53.05,Active,1,LEO,USA,USA,Commercial,Communications,Falcon,1 48656U 21044U   24131.48887701  .00016732  00000+0  11402-2 0  9992,2 48656  53.0541 241.2870 0002180  64.3822 295.7392 15.06376358162997,15.06376358,0.000218,LEO
48657,STARLINK-2734,2021,95.59,260.0,+,53.06,Active,1,LEO,USA,USA,Commercial,Communications,Falcon,1 48657U 21044V   24131.58369576  .00006238  00000+0  43745-3 0  9995,2 48657  53.0559 240.5048 0001504 136.1254 223.9854 15.06388394163015,15.06388394,0.0001504,LEO
48658,STARLINK-2647,2021,95.59,260.0,+,53.05,Active,1,LEO,USA,USA,Commercial,Communications,Falcon,1 48658U 21044W   24131.61417950  .00010163  00000+0  70012-3 0  9999,2 48658  53.0536 240.7216 0001171  88.4154 271.6969 15.06404683163015,15.06404683,0.0001171,LEO
48659,STARLINK-2717,2021,95.59,260.0,+,53.05,Active,1,LEO,USA,USA,Commercial,Communications,Falcon,1 48659U 21044X   24131.61049694  .00005133  00000+0  36327-3 0  9998,2 48659  53.0545 240.7440 0001651  96.8391 263.2785 15.06398956163012,15.06398956,0.0001651,LEO
48660,STARLINK-2688,2021,95.59,260.0,+,53.05,Active,1,LEO,USA,USA,Commercial,Communications,Falcon,1 48660U 21044Y   24131.60682417  .00036306  00000+0  24448-2 0  9991,2 48660  53.0548 240.7608 0001261  64.7227 295.3892 15.06384237163014,15.06384237,0.0001261,LEO
48661,STARLINK-2708,2021,95.59,260.0,+,53.05,Active,1,LEO,USA,USA,Commercial,Communications,Falcon,1 48661U 21044Z   24131.54139512  .00030143  00000+0  20335-2 0  9992,2 48661  53.0535 231.0501 0001773  87.1740 272.9452 15.06406037163143,15.06406037,0.0001773,LEO
48662,STARLINK-2726,2021,95.59,260.0,+,53.05,Active,1,LEO,USA,USA,Commercial,Communications,Falcon,1 48662U 21044AA  24131.53771053  .00010398  00000+0  71596-3 0  9990,2 48662  53.0527 231.0650 0001945  81.6454 278.4756 15.06396975163149,15.06396975,0.0001945,LEO
48663,STARLINK-2667,2021,95.59,260.0,+,53.05,Active,1,LEO,USA,USA,Commercial,Communications,Falcon,1 48663U 21044AB  24131.60036676  .00012078  00000+0  82827-3 0  9990,2 48663  53.0535 230.7860 0001499  87.7200 272.3961 15.06402735163152,15.06402735,0.0001499,LEO
48664,STARLINK-2709,2021,95.59,260.0,+,53.05,Active,1,LEO,USA,USA,Commercial,Communications,Falcon,1 48664U 21044AC  24131.53031798  .00020015  00000+0  13601-2 0  9996,2 48664  53.0531 231.0988 0001267  78.4588 281.6543 15.06363324163141,15.06363324,0.0001267,LEO
48665,STARLINK-2653,2021,90.96,260.0,P,53.05,Active,1,LEO,USA,USA,Commercial,Communications,Falcon,1 48665U 21044AD  24131.58334491  .01081230  00000+0  44207-2 0  9991,2 48665  53.0494 205.6967 0001465  80.3620 244.5352 15.83192970164401,15.8319297,0.0001465,LEO
48666,STARLINK-2666,2021,95.59,260.0,+,53.05,Active,1,LEO,USA,USA,Commercial,Communications,Falcon,1 48666U 21044AE  24131.55618425  .00013064  00000+0  89510-3 0  9997,2 48666  53.0547 231.4553 0001340 101.9654 258.1485 15.06367772163134,15.06367772,0.000134,LEO
48667,STARLINK-2735,2021,95.59,260.0,+,53.05,Active,1,LEO,USA,USA,Commercial,Communications,Falcon,1 48667U 21044AF  24131.52663513  .00018035  00000+0  12279-2 0  9993,2 48667  53.0536 231.1162 0001174  72.4208 287.6909 15.06358786163142,15.06358786,0.0001174,LEO
48668,STARLINK-2738,2021,95.59,260.0,+,53.05,Active,1,LEO,USA,USA,Commercial,Communications,Falcon,1 48668U 21044AG  24131.52295866  .00008081  00000+0  56095-3 0  9991,2 48668  53.0530 231.1335 0001594 131.8305 228.2820 15.06387675163145,15.06387675,0.0001594,LEO
48669,STARLINK-2707,2021,95.59,260.0,+,53.05,Active,1,LEO,USA,USA,Commercial,Communications,Falcon,1 48669U 21044AH  24131.58561924  .00012641  00000+0  86588-3 0  9996,2 48669  53.0529 230.8485 0001166  90.4854 269.6268 15.06403815163140,15.06403815,0.0001166,LEO
48670,STARLINK-2763,2021,95.59,260.0,+,53.05,Active,1,LEO,USA,USA,Commercial,Communications,Falcon,1 48670U 21044AJ  24131.58194034  .00017605  00000+0  11977-2 0  9996,2 48670  53.0543 230.8686 0001453  88.6621 271.4534 15.06403078163149,15.06403078,0.0001453,LEO
48671,STARLINK-2745,2021,95.59,260.0,+,53.05,Active,1,LEO,USA,USA,Commercial,Communications,Falcon,1 48671U 21044AK  24131.57730150  .00013098  00000+0  89682-3 0  9992,2 48671  53.0533 230.8775 0001440  83.9439 276.1714 15.06390089163980,15.06390089,0.000144,LEO
48672,STARLINK-2705,2021,95.59,260.0,+,53.05,Active,1,LEO,USA,USA,Commercial,Communications,Falcon,1 48672U 21044AL  24131.57455905  .00013135  00000+0  89896-3 0  9994,2 48672  53.0544 230.9035 0001482  85.7208 274.3950 15.06402423163149,15.06402423,0.0001482,LEO
48673,STARLINK-2711,2021,95.59,260.0,+,53.05,Active,1,LEO,USA,USA,Commercial,Communications,Falcon,1 48673U 21044AM  24131.57088458  .00026384  00000+0  17849-2 0  9998,2 48673  53.0544 230.9175 0001188  86.1945 273.9179 15.06371841164048,15.06371841,0.0001188,LEO
48674,STARLINK-2712,2021,95.59,260.0,+,53.05,Active,1,LEO,USA,USA,Commercial,Communications,Falcon,1 48674U 21044AN  24131.57823679  .00004370  00000+0  31217-3 0  9998,2 48674  53.0542 230.9990 0001493 106.5128 253.6025 15.06390550164044,15.0639055,0.0001493,LEO
48675,STARLINK-2737,2021,95.59,260.0,+,53.05,Active,1,LEO,USA,USA,Commercial,Communications,Falcon,1 48675U 21044AP  24131.56349705  .00019101  00000+0  12991-2 0  9996,2 48675  53.0543 230.9506 0001617 104.7934 255.3234 15.06361771163988,15.06361771,0.0001617,LEO
48676,STARLINK-2746,2021,95.59,260.0,+,53.05,Active,1,LEO,USA,USA,Commercial,Communications,Falcon,1 48676U 21044AQ  24131.55980203  .00025001  00000+0  16921-2 0  9993,2 48676  53.0539 230.9657 0000936 103.3215 256.7879 15.06383295163144,15.06383295,9.36e-05,LEO
48677,STARLINK-2719,2021,95.59,260.0,+,53.05,Active,1,LEO,USA,USA,Commercial,Communications,Falcon,1 48677U 21044AR  24131.55515899  .00027063  00000+0  18289-2 0  9998,2 48677  53.0547 230.9796 0001177 104.5735 255.5385 15.06397044163142,15.06397044,0.0001177,LEO
48678,STARLINK-2615,2021,95.59,260.0,+,53.05,Active,1,LEO,USA,USA,Commercial,Communications,Falcon,1 48678U 21044AS  24131.55242742  .00025244  00000+0  17080-2 0  9990,2 48678  53.0546 231.0010 0001130 101.5011 258.6105 15.06390009163986,15.06390009,0.000113,LEO
48679,STARLINK-2648,2021,95.59,260.0,+,53.05,Active,1,LEO,USA,USA,Commercial,Communications,Falcon,1 48679U 21044AT  24131.54876975  .00008930  00000+0  61782-3 0  9993,2 48679  53.0538 231.0174 0001392  95.5341 264.5807 15.06388491163142,15.06388491,0.0001392,LEO
48680,STARLINK-2649,2021,95.59,260.0,+,53.05,Active,1,LEO,USA,USA,Commercial,Communications,Falcon,1 48680U 21044AU  24131.54505962  .00023565  00000+0  15959-2 0  9995,2 48680  53.0536 231.0339 0001392 103.8846 256.2298 15.06393537163147,15.06393537,0.0001392,LEO
48681,STARLINK-2725,2021,95.59,260.0,+,53.05,Active,1,LEO,USA,USA,Commercial,Communications,Falcon,1 48681U 21044AV  24131.61052755  .00006392  00000+0  44756-3 0  9998,2 48681  53.0532 200.9787 0001456  86.4353 273.6803 15.06404372163567,15.06404372,0.0001456,LEO
48682,STARLINK-2743,2021,95.59,260.0,+,53.05,Active,1,LEO,USA,USA,Commercial,Communications,Falcon,1 48682U 21044AW  24131.60775464  .00010334  00000+0  71142-3 0  9997,2 48682  53.0523 190.9175 0001479  89.1339 270.9820 15.06412410163703,15.0641241,0.0001479,LEO
48683,STARLINK-2756,2021,95.59,260.0,+,53.05,Active,1,LEO,USA,USA,Commercial,Communications,Falcon,1 48683U 21044AX  24131.56349583  .00002999  00000+0  22012-3 0  9992,2 48683  53.0519 190.9614 0001112  85.7732 274.3384 15.06399927163700,15.06399927,0.0001112,LEO
